
# Worst residual: 235.04 km
# MJD 60646.000000 (2024 Dec  2  0:00)
2008-051A = TR93D0F = IBEX = NORAD 33401
1 33401U 08051A   24337.49919926  .00000000  00000-0  00000-0 0 23180
2 33401 049.1781 020.2231 6988978 045.4145 035.8897 00.10460505    02

# Worst residual: 55.27 km
# MJD 60647.000000 (2024 Dec  3  0:00)
2008-051A = TR93D0F = IBEX = NORAD 33401
1 33401U 08051A   24338.49919926  .00000000  00000-0  00000-0 0 23181
2 33401 049.1553 020.2383 6931909 044.4759 077.0776 00.10909163    01

# Worst residual: 27.76 km
# MJD 60648.000000 (2024 Dec  4  0:00)
2008-051A = TR93D0F = IBEX = NORAD 33401
1 33401U 08051A   24339.49919926  .00000000  00000-0  00000-0 0 23182
2 33401 049.1847 020.2306 6936354 044.0155 117.9139 00.11029414    07

# Worst residual: 17.22 km
# MJD 60649.000000 (2024 Dec  5  0:00)
2008-051A = TR93D0F = IBEX = NORAD 33401
1 33401U 08051A   24340.49919926  .00000000  00000-0  00000-0 0 23184
2 33401 049.2461 020.2551 6952241 043.8000 158.3345 00.11070548    03

# Worst residual: 7.81 km
# MJD 60650.000000 (2024 Dec  6  0:00)
2008-051A = TR93D0F = IBEX = NORAD 33401
1 33401U 08051A   24341.49919926  .00000000  00000-0  00000-0 0 23185
2 33401 049.2905 020.2831 6968774 043.7408 198.4152 00.11086645    02

# Worst residual: 5.03 km
# MJD 60651.000000 (2024 Dec  7  0:00)
2008-051A = TR93D0F = IBEX = NORAD 33401
1 33401U 08051A   24342.49919926  .00000000  00000-0  00000-0 0 23186
2 33401 049.2977 020.2753 6978071 043.7669 238.3501 00.11090139    09

# Worst residual: 14.67 km
# MJD 60652.000000 (2024 Dec  8  0:00)
2008-051A = TR93D0F = IBEX = NORAD 33401
1 33401U 08051A   24343.49919926  .00000000  00000-0  00000-0 0 23187
2 33401 049.2840 020.2331 6979909 043.7280 278.4354 00.11067370    02

# Worst residual: 56.37 km
# MJD 60653.000000 (2024 Dec  9  0:00)
2008-051A = TR93D0F = IBEX = NORAD 33401
1 33401U 08051A   24344.49919926  .00000000  00000-0  00000-0 0 23188
2 33401 049.2643 020.1820 6993283 043.4142 318.9115 00.10938394    07

# Worst residual: 173.05 km
# MJD 60654.000000 (2024 Dec 10  0:00)
2008-051A = TR93D0F = IBEX = NORAD 33401
1 33401U 08051A   24345.49919926  .00000000  00000-0  00000-0 0 23189
2 33401 049.2273 020.1373 7062885 043.7725 358.4337 00.10687647    02

# Worst residual: 70.64 km
# MJD 60655.000000 (2024 Dec 11  0:00)
2008-051A = TR93D0F = IBEX = NORAD 33401
1 33401U 08051A   24346.49919926  .00000000  00000-0  00000-0 0 23180
2 33401 049.2051 020.0993 7015876 044.4254 037.2442 00.10855059    09

# Worst residual: 16.18 km
# MJD 60656.000000 (2024 Dec 12  0:00)
2008-051A = TR93D0F = IBEX = NORAD 33401
1 33401U 08051A   24347.49919926  .00000000  00000-0  00000-0 0 23181
2 33401 049.1397 020.0615 7001613 044.2340 077.1665 00.10976487    09

# Worst residual: 5.80 km
# MJD 60657.000000 (2024 Dec 13  0:00)
2008-051A = TR93D0F = IBEX = NORAD 33401
1 33401U 08051A   24348.49919926  .00000000  00000-0  00000-0 0 23182
2 33401 049.0922 020.0013 6998885 044.2396 116.8861 00.10997551    04

# Worst residual: 1.83 km
# MJD 60658.000000 (2024 Dec 14  0:00)
2008-051A = TR93D0F = IBEX = NORAD 33401
1 33401U 08051A   24349.49919926  .00000000  00000-0  00000-0 0 23183
2 33401 049.0887 019.9660 6999160 044.2863 156.4279 00.11000081    02

# Worst residual: 6.90 km
# MJD 60659.000000 (2024 Dec 15  0:00)
2008-051A = TR93D0F = IBEX = NORAD 33401
1 33401U 08051A   24350.49919926  .00000000  00000-0  00000-0 0 23185
2 33401 049.1146 019.9703 7003134 044.3606 195.7477 00.11002157    05

# Worst residual: 10.45 km
# MJD 60660.000000 (2024 Dec 16  0:00)
2008-051A = TR93D0F = IBEX = NORAD 33401
1 33401U 08051A   24351.49919926  .00000000  00000-0  00000-0 0 23186
2 33401 049.1312 019.9782 7007152 044.5014 234.8532 00.11013460    02

# Worst residual: 16.02 km
# MJD 60661.000000 (2024 Dec 17  0:00)
2008-051A = TR93D0F = IBEX = NORAD 33401
1 33401U 08051A   24352.49919926  .00000000  00000-0  00000-0 0 23187
2 33401 049.1221 019.9461 7005201 044.7168 273.8620 00.11041423    01

# Worst residual: 19.77 km
# MJD 60662.000000 (2024 Dec 18  0:00)
2008-051A = TR93D0F = IBEX = NORAD 33401
1 33401U 08051A   24353.49919926  .00000000  00000-0  00000-0 0 23188
2 33401 049.1006 019.8469 6991517 044.9461 312.9910 00.11092419    08

# Worst residual: 50.87 km
# MJD 60663.000000 (2024 Dec 19  0:00)
2008-051A = TR93D0F = IBEX = NORAD 33401
1 33401U 08051A   24354.49919926  .00000000  00000-0  00000-0 0 23189
2 33401 049.1225 019.7039 6970885 044.8623 352.6588 00.11120443    08

# Worst residual: 6.01 km
# MJD 60664.000000 (2024 Dec 20  0:00)
2008-051A = TR93D0F = IBEX = NORAD 33401
1 33401U 08051A   24355.49919926  .00000000  00000-0  00000-0 0 23180
2 33401 049.1282 019.7308 6992533 044.7980 032.2762 00.11000282    02

# Worst residual: 13.63 km
# MJD 60665.000000 (2024 Dec 21  0:00)
2008-051A = TR93D0F = IBEX = NORAD 33401
1 33401U 08051A   24356.49919926  .00000000  00000-0  00000-0 0 23181
2 33401 049.1430 019.6903 7001833 044.6711 071.9777 00.11042804    05

# Worst residual: 13.08 km
# MJD 60666.000000 (2024 Dec 22  0:00)
2008-051A = TR93D0F = IBEX = NORAD 33401
1 33401U 08051A   24357.49919926  .00000000  00000-0  00000-0 0 23182
2 33401 049.1835 019.6723 7018100 044.5099 112.0201 00.11088837    02

# Worst residual: 13.88 km
# MJD 60667.000000 (2024 Dec 23  0:00)
2008-051A = TR93D0F = IBEX = NORAD 33401
1 33401U 08051A   24358.49919926  .00000000  00000-0  00000-0 0 23183
2 33401 049.2038 019.6568 7033466 044.4008 152.3010 00.11120153    09

# Worst residual: 16.75 km
# MJD 60668.000000 (2024 Dec 24  0:00)
2008-051A = TR93D0F = IBEX = NORAD 33401
1 33401U 08051A   24359.49919926  .00000000  00000-0  00000-0 0 23184
2 33401 049.2144 019.6432 7050269 044.3098 192.7896 00.11139205    03

# Worst residual: 19.89 km
# MJD 60669.000000 (2024 Dec 25  0:00)
2008-051A = TR93D0F = IBEX = NORAD 33401
1 33401U 08051A   24360.49919926  .00000000  00000-0  00000-0 0 23186
2 33401 049.2226 019.6388 7072126 044.2316 233.4265 00.11144867    05

# Worst residual: 26.82 km
# MJD 60670.000000 (2024 Dec 26  0:00)
2008-051A = TR93D0F = IBEX = NORAD 33401
1 33401U 08051A   24361.49919926  .00000000  00000-0  00000-0 0 23187
2 33401 049.2229 019.6347 7097229 044.1568 274.1585 00.11123176    09

# Worst residual: 64.16 km
# MJD 60671.000000 (2024 Dec 27  0:00)
2008-051A = TR93D0F = IBEX = NORAD 33401
1 33401U 08051A   24362.49919926  .00000000  00000-0  00000-0 0 23188
2 33401 049.2139 019.6080 7128184 043.9034 315.1008 00.10997861    08

# Worst residual: 313.55 km
# MJD 60672.000000 (2024 Dec 28  0:00)
2008-051A = TR93D0F = IBEX = NORAD 33401
1 33401U 08051A   24363.49919926  .00000000  00000-0  00000-0 0 23189
2 33401 049.2488 019.4566 7245059 044.0625 355.5446 00.10519741    02

# Worst residual: 251.64 km
# MJD 60673.000000 (2024 Dec 29  0:00)
2008-051A = TR93D0F = IBEX = NORAD 33401
1 33401U 08051A   24364.49919926  .00000000  00000-0  00000-0 0 23180
2 33401 049.1948 019.5520 7182111 045.9185 033.1873 00.10555009    03
